ONEWEB-0120             
1 47266U 20100J   26129.19552675 -.00000357  00000+0 -10288-2 0  9995
2 47266  87.8971 358.4248 0001659  82.7663 277.3654 13.12443681259614
ONEWEB-0121             
1 47267U 20100K   26129.18354985 -.00000042  00000+0 -15220-3 0  9992
2 47267  87.8980 358.4097 0002079  82.3336 277.8029 13.12443258259528
ONEWEB-0122             
1 47268U 20100L   26129.17761623  .00000174  00000+0  44902-3 0  9996
2 47268  87.8980 358.4147 0001696  78.2530 281.8788 13.12443670259434
ONEWEB-0123             
1 47269U 20100M   26129.17338020  .00000236  00000+0  62101-3 0  9998
2 47269  87.8969 358.4277 0001789  86.3994 273.7339 13.12441668259575
ONEWEB-0124             
1 47270U 20100N   26129.16321584  .00000469  00000+0  12686-2 0  9996
2 47270  87.8969 358.4330 0001885  83.1485 276.9858 13.12442090259452
ONEWEB-0125             
1 47271U 20100P   26129.14119301 -.00000007  00000+0 -55246-4 0  9998
2 47271  87.8981 358.4161 0001998  89.4442 270.6915 13.12443099259518
ONEWEB-0126             
1 47272U 20100Q   26129.16166890  .00000467  00000+0  12626-2 0  9997
2 47272  87.8975 358.4305 0001650  83.7432 276.3885 13.12443130259585
ONEWEB-0127             
1 47273U 20100R   26129.12762118 -.00000382  00000+0 -10979-2 0  9996
2 47273  87.8970 358.4373 0001567  81.5763 278.5543 13.12445225259601
ONEWEB-0128             
1 47274U 20100S   26129.14966694  .00000218  00000+0  57117-3 0  9996
2 47274  87.8967 358.4474 0001956  74.3469 285.7875 13.12445435259628
ONEWEB-0129             
1 47275U 20100T   26129.12932315 -.00000277  00000+0 -80584-3 0  9999
2 47275  87.8979 358.4208 0000614  73.0084 287.1112 13.12445037259556
ONEWEB-0130             
1 47276U 20100U   26129.15642807  .00000456  00000+0  12324-2 0  9990
2 47276  87.8978 358.4106 0001699  80.3633 279.7687 13.12445844259525
ONEWEB-0131             
1 47277U 20100V   26129.15303977  .00000342  00000+0  91525-3 0  9998
2 47277  87.8969 358.4337 0001771  80.9852 279.1477 13.12445952259567
ONEWEB-0132             
1 47278U 20100W   26129.18184811  .00000024  00000+0  30934-4 0  9991
2 47278  87.8970 358.4290 0001829  80.7686 279.3649 13.12441150259463
ONEWEB-0133             
1 47279U 20100X   26129.19864660 -.00000412  00000+0 -11795-2 0  9995
2 47279  87.8985 358.3967 0001842  78.4877 281.6458 13.12444395259627
ONEWEB-0134             
1 47280U 20100Y   26129.16829867  .00000423  00000+0  11395-2 0  9990
2 47280  87.8982 358.4003 0001668  74.3646 285.7666 13.12441361259595
ONEWEB-0135             
1 47281U 20100Z   26129.13949203 -.00000103  00000+0 -32208-3 0  9999
2 47281  87.8970 358.4338 0001740  72.2795 287.8524 13.12445719259617
