[{"OBJECT_NAME":"ONEWEB-0120","OBJECT_ID":"2020-100J","EPOCH":"2026-05-09T04:41:33.511200","MEAN_MOTION":13.12443681,"ECCENTRICITY":0.0001659,"INCLINATION":87.8971,"RA_OF_ASC_NODE":358.4248,"ARG_OF_PERICENTER":82.7663,"MEAN_ANOMALY":277.3654,"EPHEMERIS_TYPE":0,"CLASSIFICATION_TYPE":"U","NORAD_CAT_ID":47266,"ELEMENT_SET_NO":999,"REV_AT_EPOCH":25961,"BSTAR":-0.0010288,"MEAN_MOTION_DOT":-3.57e-06,"MEAN_MOTION_DDOT":0.0},{"OBJECT_NAME":"ONEWEB-0121","OBJECT_ID":"2020-100K","EPOCH":"2026-05-09T04:24:18.707040","MEAN_MOTION":13.12443258,"ECCENTRICITY":0.0002079,"INCLINATION":87.898,"RA_OF_ASC_NODE":358.4097,"ARG_OF_PERICENTER":82.3336,"MEAN_ANOMALY":277.8029,"EPHEMERIS_TYPE":0,"CLASSIFICATION_TYPE":"U","NORAD_CAT_ID":47267,"ELEMENT_SET_NO":999,"REV_AT_EPOCH":25952,"BSTAR":-0.0001522,"MEAN_MOTION_DOT":-4.2e-07,"MEAN_MOTION_DDOT":0.0},{"OBJECT_NAME":"ONEWEB-0122","OBJECT_ID":"2020-100L","EPOCH":"2026-05-09T04:15:46.042272","MEAN_MOTION":13.1244367,"ECCENTRICITY":0.0001696,"INCLINATION":87.898,"RA_OF_ASC_NODE":358.4147,"ARG_OF_PERICENTER":78.253,"MEAN_ANOMALY":281.8788,"EPHEMERIS_TYPE":0,"CLASSIFICATION_TYPE":"U","NORAD_CAT_ID":47268,"ELEMENT_SET_NO":999,"REV_AT_EPOCH":25943,"BSTAR":0.00044902,"MEAN_MOTION_DOT":1.74e-06,"MEAN_MOTION_DDOT":0.0},{"OBJECT_NAME":"ONEWEB-0123","OBJECT_ID":"2020-100M","EPOCH":"2026-05-09T04:09:40.049280","MEAN_MOTION":13.12441668,"ECCENTRICITY":0.0001789,"INCLINATION":87.8969,"RA_OF_ASC_NODE":358.4277,"ARG_OF_PERICENTER":86.3994,"MEAN_ANOMALY":273.7339,"EPHEMERIS_TYPE":0,"CLASSIFICATION_TYPE":"U","NORAD_CAT_ID":47269,"ELEMENT_SET_NO":999,"REV_AT_EPOCH":25957,"BSTAR":0.00062101,"MEAN_MOTION_DOT":2.36e-06,"MEAN_MOTION_DDOT":0.0},{"OBJECT_NAME":"ONEWEB-0124","OBJECT_ID":"2020-100N","EPOCH":"2026-05-09T03:55:01.848576","MEAN_MOTION":13.1244209,"ECCENTRICITY":0.0001885,"INCLINATION":87.8969,"RA_OF_ASC_NODE":358.433,"ARG_OF_PERICENTER":83.1485,"MEAN_ANOMALY":276.9858,"EPHEMERIS_TYPE":0,"CLASSIFICATION_TYPE":"U","NORAD_CAT_ID":47270,"ELEMENT_SET_NO":999,"REV_AT_EPOCH":25945,"BSTAR":0.0012686,"MEAN_MOTION_DOT":4.69e-06,"MEAN_MOTION_DDOT":0.0},{"OBJECT_NAME":"ONEWEB-0125","OBJECT_ID":"2020-100P","EPOCH":"2026-05-09T03:23:19.076064","MEAN_MOTION":13.12443099,"ECCENTRICITY":0.0001998,"INCLINATION":87.8981,"RA_OF_ASC_NODE":358.4161,"ARG_OF_PERICENTER":89.4442,"MEAN_ANOMALY":270.6915,"EPHEMERIS_TYPE":0,"CLASSIFICATION_TYPE":"U","NORAD_CAT_ID":47271,"ELEMENT_SET_NO":999,"REV_AT_EPOCH":25951,"BSTAR":-5.5246e-05,"MEAN_MOTION_DOT":-7e-08,"MEAN_MOTION_DDOT":0.0},{"OBJECT_NAME":"ONEWEB-0126","OBJECT_ID":"2020-100Q","EPOCH":"2026-05-09T03:52:48.192960","MEAN_MOTION":13.1244313,"ECCENTRICITY":0.000165,"INCLINATION":87.8975,"RA_OF_ASC_NODE":358.4305,"ARG_OF_PERICENTER":83.7432,"MEAN_ANOMALY":276.3885,"EPHEMERIS_TYPE":0,"CLASSIFICATION_TYPE":"U","NORAD_CAT_ID":47272,"ELEMENT_SET_NO":999,"REV_AT_EPOCH":25958,"BSTAR":0.0012626000000000002,"MEAN_MOTION_DOT":4.67e-06,"MEAN_MOTION_DDOT":0.0},{"OBJECT_NAME":"ONEWEB-0127","OBJECT_ID":"2020-100R","EPOCH":"2026-05-09T03:03:46.469952","MEAN_MOTION":13.12445225,"ECCENTRICITY":0.0001567,"INCLINATION":87.897,"RA_OF_ASC_NODE":358.4373,"ARG_OF_PERICENTER":81.5763,"MEAN_ANOMALY":278.5543,"EPHEMERIS_TYPE":0,"CLASSIFICATION_TYPE":"U","NORAD_CAT_ID":47273,"ELEMENT_SET_NO":999,"REV_AT_EPOCH":25960,"BSTAR":-0.0010979,"MEAN_MOTION_DOT":-3.82e-06,"MEAN_MOTION_DDOT":0.0},{"OBJECT_NAME":"ONEWEB-0128","OBJECT_ID":"2020-100S","EPOCH":"2026-05-09T03:35:31.223616","MEAN_MOTION":13.12445435,"ECCENTRICITY":0.0001956,"INCLINATION":87.8967,"RA_OF_ASC_NODE":358.4474,"ARG_OF_PERICENTER":74.3469,"MEAN_ANOMALY":285.7875,"EPHEMERIS_TYPE":0,"CLASSIFICATION_TYPE":"U","NORAD_CAT_ID":47274,"ELEMENT_SET_NO":999,"REV_AT_EPOCH":25962,"BSTAR":0.00057117,"MEAN_MOTION_DOT":2.18e-06,"MEAN_MOTION_DDOT":0.0},{"OBJECT_NAME":"ONEWEB-0129","OBJECT_ID":"2020-100T","EPOCH":"2026-05-09T03:06:13.520160","MEAN_MOTION":13.12445037,"ECCENTRICITY":6.14e-05,"INCLINATION":87.8979,"RA_OF_ASC_NODE":358.4208,"ARG_OF_PERICENTER":73.0084,"MEAN_ANOMALY":287.1112,"EPHEMERIS_TYPE":0,"CLASSIFICATION_TYPE":"U","NORAD_CAT_ID":47275,"ELEMENT_SET_NO":999,"REV_AT_EPOCH":25955,"BSTAR":-0.00080584,"MEAN_MOTION_DOT":-2.77e-06,"MEAN_MOTION_DDOT":0.0},{"OBJECT_NAME":"ONEWEB-0130","OBJECT_ID":"2020-100U","EPOCH":"2026-05-09T03:45:15.385248","MEAN_MOTION":13.12445844,"ECCENTRICITY":0.0001699,"INCLINATION":87.8978,"RA_OF_ASC_NODE":358.4106,"ARG_OF_PERICENTER":80.3633,"MEAN_ANOMALY":279.7687,"EPHEMERIS_TYPE":0,"CLASSIFICATION_TYPE":"U","NORAD_CAT_ID":47276,"ELEMENT_SET_NO":999,"REV_AT_EPOCH":25952,"BSTAR":0.0012324,"MEAN_MOTION_DOT":4.56e-06,"MEAN_MOTION_DDOT":0.0},{"OBJECT_NAME":"ONEWEB-0131","OBJECT_ID":"2020-100V","EPOCH":"2026-05-09T03:40:22.636128","MEAN_MOTION":13.12445952,"ECCENTRICITY":0.0001771,"INCLINATION":87.8969,"RA_OF_ASC_NODE":358.4337,"ARG_OF_PERICENTER":80.9852,"MEAN_ANOMALY":279.1477,"EPHEMERIS_TYPE":0,"CLASSIFICATION_TYPE":"U","NORAD_CAT_ID":47277,"ELEMENT_SET_NO":999,"REV_AT_EPOCH":25956,"BSTAR":0.00091525,"MEAN_MOTION_DOT":3.42e-06,"MEAN_MOTION_DDOT":0.0},{"OBJECT_NAME":"ONEWEB-0132","OBJECT_ID":"2020-100W","EPOCH":"2026-05-09T04:21:51.676704","MEAN_MOTION":13.1244115,"ECCENTRICITY":0.0001829,"INCLINATION":87.897,"RA_OF_ASC_NODE":358.429,"ARG_OF_PERICENTER":80.7686,"MEAN_ANOMALY":279.3649,"EPHEMERIS_TYPE":0,"CLASSIFICATION_TYPE":"U","NORAD_CAT_ID":47278,"ELEMENT_SET_NO":999,"REV_AT_EPOCH":25946,"BSTAR":3.0934e-05,"MEAN_MOTION_DOT":2.4e-07,"MEAN_MOTION_DDOT":0.0},{"OBJECT_NAME":"ONEWEB-0133","OBJECT_ID":"2020-100X","EPOCH":"2026-05-09T04:46:03.066240","MEAN_MOTION":13.12444395,"ECCENTRICITY":0.0001842,"INCLINATION":87.8985,"RA_OF_ASC_NODE":358.3967,"ARG_OF_PERICENTER":78.4877,"MEAN_ANOMALY":281.6458,"EPHEMERIS_TYPE":0,"CLASSIFICATION_TYPE":"U","NORAD_CAT_ID":47279,"ELEMENT_SET_NO":999,"REV_AT_EPOCH":25962,"BSTAR":-0.0011795,"MEAN_MOTION_DOT":-4.12e-06,"MEAN_MOTION_DDOT":0.0},{"OBJECT_NAME":"ONEWEB-0134","OBJECT_ID":"2020-100Y","EPOCH":"2026-05-09T04:02:21.005088","MEAN_MOTION":13.12441361,"ECCENTRICITY":0.0001668,"INCLINATION":87.8982,"RA_OF_ASC_NODE":358.4003,"ARG_OF_PERICENTER":74.3646,"MEAN_ANOMALY":285.7666,"EPHEMERIS_TYPE":0,"CLASSIFICATION_TYPE":"U","NORAD_CAT_ID":47280,"ELEMENT_SET_NO":999,"REV_AT_EPOCH":25959,"BSTAR":0.0011394999999999999,"MEAN_MOTION_DOT":4.23e-06,"MEAN_MOTION_DDOT":0.0},{"OBJECT_NAME":"ONEWEB-0135","OBJECT_ID":"2020-100Z","EPOCH":"2026-05-09T03:20:52.111392","MEAN_MOTION":13.12445719,"ECCENTRICITY":0.000174,"INCLINATION":87.897,"RA_OF_ASC_NODE":358.4338,"ARG_OF_PERICENTER":72.2795,"MEAN_ANOMALY":287.8524,"EPHEMERIS_TYPE":0,"CLASSIFICATION_TYPE":"U","NORAD_CAT_ID":47281,"ELEMENT_SET_NO":999,"REV_AT_EPOCH":25961,"BSTAR":-0.00032208,"MEAN_MOTION_DOT":-1.03e-06,"MEAN_MOTION_DDOT":0.0}]